$$SOE
2461288.500000000, A.D. 2026-Sep-05 00:00:00.0000, -2.415553847849909E+08, -2.902848744250171E+08, 2.092781745485865E+07,
2461295.500000000, A.D. 2026-Sep-12 00:00:00.0000, -2.336188740431931E+08, -2.981201278641524E+08, 2.328513789728531E+07,
2461302.500000000, A.D. 2026-Sep-19 00:00:00.0000, -2.254747981452585E+08, -3.056905560023732E+08, 2.562177525963700E+07,
2461309.500000000, A.D. 2026-Sep-26 00:00:00.0000, -2.171323519651783E+08, -3.129920908199236E+08, 2.793587626548007E+07,
2461316.500000000, A.D. 2026-Oct-03 00:00:00.0000, -2.086007352802354E+08, -3.200209929297106E+08, 3.022564448461704E+07,
2461323.500000000, A.D. 2026-Oct-10 00:00:00.0000, -1.998891416732793E+08, -3.267738434879366E+08, 3.248934032778414E+07,
2461330.500000000, A.D. 2026-Oct-17 00:00:00.0000, -1.910067481970941E+08, -3.332475359893851E+08, 3.472528091407837E+07,
2461337.500000000, A.D. 2026-Oct-24 00:00:00.0000, -1.819627057580761E+08, -3.394392680177107E+08, 3.693183981790349E+07,
2461344.500000000, A.D. 2026-Oct-31 00:00:00.0000, -1.727661300999784E+08, -3.453465330608113E+08, 3.910744669147713E+07,
2461351.500000000, A.D. 2026-Nov-07 00:00:00.0000, -1.634260930261779E+08, -3.509671123568234E+08, 4.125058674793637E+07,
2461358.500000000, A.D. 2026-Nov-14 00:00:00.0000, -1.539516136356407E+08, -3.562990659193909E+08, 4.335980016874832E+07,
2461365.500000000, A.D. 2026-Nov-21 00:00:00.0000, -1.443516513589334E+08, -3.613407220924209E+08, 4.543368166628030E+07,
2461372.500000000, A.D. 2026-Nov-28 00:00:00.0000, -1.346351017652851E+08, -3.660906686715078E+08, 4.747088005550760E+07,
2461379.500000000, A.D. 2026-Dec-05 00:00:00.0000, -1.248107914940669E+08, -3.705477462769351E+08, 4.947009745749168E+07,
2461386.500000000, A.D. 2026-Dec-12 00:00:00.0000, -1.148874721199577E+08, -3.747110408936201E+08, 5.143008838208085E+07,
2461393.500000000, A.D. 2026-Dec-19 00:00:00.0000, -1.048738148133097E+08, -3.785798755935360E+08, 5.334965887117518E+07,
2461400.500000000, A.D. 2026-Dec-26 00:00:00.0000, -9.477840591199493E+07, -3.821538023270893E+08, 5.522766565157826E+07,
2461407.500000000, A.D. 2027-Jan-02 00:00:00.0000, -8.460974310274695E+07, -3.854325939902066E+08, 5.706301526263388E+07,
2461414.500000000, A.D. 2027-Jan-09 00:00:00.0000, -7.437623206897685E+07, -3.884162367610359E+08, 5.885466315503316E+07,
2461421.500000000, A.D. 2027-Jan-16 00:00:00.0000, -6.408618354437106E+07, -3.911049227106047E+08, 6.060161276352552E+07,
2461428.500000000, A.D. 2027-Jan-23 00:00:00.0000, -5.374781070243408E+07, -3.934990427391465E+08, 6.230291455132172E+07,
2461435.500000000, A.D. 2027-Jan-30 00:00:00.0000, -4.336922667186669E+07, -3.955991798960719E+08, 6.395766501004493E+07,
2461442.500000000, A.D. 2027-Feb-06 00:00:00.0000, -3.295844173155158E+07, -3.974061027516705E+08, 6.556500560852930E+07,
2461449.500000000, A.D. 2027-Feb-13 00:00:00.0000, -2.252336062460278E+07, -3.989207576069720E+08, 6.712412183626416E+07,
2461456.500000000, A.D. 2027-Feb-20 00:00:00.0000, -1.207178233470795E+07, -4.001442603365296E+08, 6.863424249680276E+07,
2461463.500000000, A.D. 2027-Feb-27 00:00:00.0000, -1.611400907688780E+06, -4.010778910805687E+08, 7.009463886323088E+07,
2461470.500000000, A.D. 2027-Mar-06 00:00:00.0000, 8.850195720184894E+06, -4.017230898677837E+08, 7.150462357926944E+07,
2461477.500000000, A.D. 2027-Mar-13 00:00:00.0000, 1.930552730498930E+07, -4.020814511223239E+08, 7.286354962359695E+07,
2461484.500000000, A.D. 2027-Mar-20 00:00:00.0000, 2.974722217611536E+07, -4.021547178896474E+08, 7.417080937519185E+07,
2461491.500000000, A.D. 2027-Mar-27 00:00:00.0000, 4.016801763329430E+07, -4.019447763274598E+08, 7.542583371756540E+07,
2461498.500000000, A.D. 2027-Apr-03 00:00:00.0000, 5.056076007885624E+07, -4.014536505047702E+08, 7.662809115957819E+07,
2461505.500000000, A.D. 2027-Apr-10 00:00:00.0000, 6.091840496409099E+07, -4.006834974809523E+08, 7.777708696892835E+07,
2461512.500000000, A.D. 2027-Apr-17 00:00:00.0000, 7.123401659041497E+07, -3.996366026758952E+08, 7.887236231573126E+07,
2461519.500000000, A.D. 2027-Apr-24 00:00:00.0000, 8.150076786219746E+07, -3.983153755928528E+08, 7.991349341594481E+07,
2461526.500000000, A.D. 2027-May-01 00:00:00.0000, 9.171194030566402E+07, -3.967223458668266E+08, 8.090009065243112E+07,
2461533.500000000, A.D. 2027-May-08 00:00:00.0000, 1.018609246731743E+08, -3.948601588896750E+08, 8.183179770929968E+07,
2461540.500000000, A.D. 2027-May-15 00:00:00.0000, 1.119412206461269E+08, -3.927315700556599E+08, 8.270829093626077E+07,
2461547.500000000, A.D. 2027-May-22 00:00:00.0000, 1.219464340825014E+08, -3.903394402133207E+08, 8.352927887477592E+07,
2461554.500000000, A.D. 2027-May-29 00:00:00.0000, 1.318702751760111E+08, -3.876867337855452E+08, 8.429450151803580E+07,
2461561.500000000, A.D. 2027-Jun-05 00:00:00.0000, 1.417065584230128E+08, -3.847765164214631E+08, 8.500372948014733E+07,
2461568.500000000, A.D. 2027-Jun-12 00:00:00.0000, 1.514492023997462E+08, -3.816119517442760E+08, 8.565676329476140E+07,
2461575.500000000, A.D. 2027-Jun-19 00:00:00.0000, 1.610922290280078E+08, -3.781962981254182E+08, 8.625343279767960E+07,
2461582.500000000, A.D. 2027-Jun-26 00:00:00.0000, 1.706297626171191E+08, -3.745329057415587E+08, 8.679359654690528E+07,
2461589.500000000, A.D. 2027-Jul-03 00:00:00.0000, 1.800560288219417E+08, -3.706252139012234E+08, 8.727714126897433E+07,
2461596.500000000, A.D. 2027-Jul-10 00:00:00.0000, 1.893653535605870E+08, -3.664767486269427E+08, 8.770398132878639E+07,
2461603.500000000, A.D. 2027-Jul-17 00:00:00.0000, 1.985521619347148E+08, -3.620911205257365E+08, 8.807405821591164E+07,
2461610.500000000, A.D. 2027-Jul-24 00:00:00.0000, 2.076109773157817E+08, -3.574720230045189E+08, 8.838734002740240E+07,
2461617.500000000, A.D. 2027-Jul-31 00:00:00.0000, 2.165364210159696E+08, -3.526232305894287E+08, 8.864382092864832E+07,
2461624.500000000, A.D. 2027-Aug-07 00:00:00.0000, 2.253232123499344E+08, -3.475485961928790E+08, 8.884352070522904E+07,
2461631.500000000, A.D. 2027-Aug-14 00:00:00.0000, 2.339661667919522E+08, -3.422520475770635E+08, 8.898648459618849E+07,
2461638.500000000, A.D. 2027-Aug-21 00:00:00.0000, 2.424601928518665E+08, -3.367375863720965E+08, 8.907278307642283E+07,
2461645.500000000, A.D. 2027-Aug-28 00:00:00.0000, 2.508002911071434E+08, -3.310092884397835E+08, 8.910251137150894E+07,
2461652.500000000, A.D. 2027-Sep-04 00:00:00.0000, 2.589815542163158E+08, -3.250713030768824E+08, 8.907578901829696E+07,
2461659.500000000, A.D. 2027-Sep-11 00:00:00.0000, 2.669991665237465E+08, -3.189278517158657E+08, 8.899275954557224E+07,
2461666.500000000, A.D. 2027-Sep-18 00:00:00.0000, 2.748484033932784E+08, -3.125832267694945E+08, 8.885359020934357E+07,
2461673.500000000, A.D. 2027-Sep-25 00:00:00.0000, 2.825246305036835E+08, -3.060417906925144E+08, 8.865847175505471E+07,
2461680.500000000, A.D. 2027-Oct-02 00:00:00.0000, 2.900233031847818E+08, -2.993079752283458E+08, 8.840761820155875E+07,
2461687.500000000, A.D. 2027-Oct-09 00:00:00.0000, 2.973399658202019E+08, -2.923862808404645E+08, 8.810126664368719E+07,
2461694.500000000, A.D. 2027-Oct-16 00:00:00.0000, 3.044702513832633E+08, -2.852812763779880E+08, 8.773967706211716E+07,
2461701.500000000, A.D. 2027-Oct-23 00:00:00.0000, 3.114098813697256E+08, -2.779975989752387E+08, 8.732313211528015E+07,
2461708.500000000, A.D. 2027-Oct-30 00:00:00.0000, 3.181546665072368E+08, -2.705399535696829E+08, 8.685193692870422E+07,
2461715.500000000, A.D. 2027-Nov-06 00:00:00.0000, 3.247005070834176E+08, -2.629131109067831E+08, 8.632641908140054E+07,
2461722.500000000, A.D. 2027-Nov-13 00:00:00.0000, 3.310433909106257E+08, -2.551219061052386E+08, 8.574692880185816E+07,
2461729.500000000, A.D. 2027-Nov-20 00:00:00.0000, 3.371793918312923E+08, -2.471712399638867E+08, 8.511383892791134E+07,
2461736.500000000, A.D. 2027-Nov-27 00:00:00.0000, 3.431046703843388E+08, -2.390660800408027E+08, 8.442754472372940E+07,
2461743.500000000, A.D. 2027-Dec-04 00:00:00.0000, 3.488154746121751E+08, -2.308114605868740E+08, 8.368846381390820E+07,
2461750.500000000, A.D. 2027-Dec-11 00:00:00.0000, 3.543081404595906E+08, -2.224124822936963E+08, 8.289703620548186E+07,
2461757.500000000, A.D. 2027-Dec-18 00:00:00.0000, 3.595790920410812E+08, -2.138743121893352E+08, 8.205372434349957E+07,
2461764.500000000, A.D. 2027-Dec-25 00:00:00.0000, 3.646248419313128E+08, -2.052021836775203E+08, 8.115901318488456E+07,
2461771.500000000, A.D. 2028-Jan-01 00:00:00.0000, 3.694419915246207E+08, -1.964013966994329E+08, 8.021341028776523E+07,
$$EOE